{"type": "FeatureCollection", "features": [ {"type": "Feature", "properties": {"norad_id": 29843, "name": "FENGYUN 1C DEB", "group": "fengyun-1c-debris", "lat": 74.66500458989265, "lon": 140.27373887669174, "alt_km": 857.8966738662111, "timestamp": "2025-12-03T17:47:50.989318+00:00", "meta": {"OBJECT_NAME": "FENGYUN 1C DEB", "OBJECT_ID": "1999-025EM", "EPOCH": "2025-12-03T12:32:35.135232", "MEAN_MOTION": 14.28545511, "ECCENTRICITY": 0.0192054, "INCLINATION": 99.0379, "RA_OF_ASC_NODE": 175.5267, "ARG_OF_PERICENTER": 317.489, "MEAN_ANOMALY": 72.9021, "EPHEMERIS_TYPE": 0, "CLASSIFICATION_TYPE": "U", "NORAD_CAT_ID": 29843, "ELEMENT_SET_NO": 999, "REV_AT_EPOCH": 98150, "BSTAR": 0.00026236, "MEAN_MOTION_DOT": 7.48e-06, "MEAN_MOTION_DDOT": 0}, "tle": {"line1": "1 29843U 99025EM  25337.52262888  .00000748  00000+0  26236-3 0  9992", "line2": "2 29843  99.0379 175.5267 0192054 317.4890  72.9021 14.28545511981501"}}, "geometry": {"type": "Point", "coordinates": [140.27373887669174, 74.66500458989265]}}, {"type": "Feature", "properties": {"norad_id": 29844, "name": "FENGYUN 1C DEB", "group": "fengyun-1c-debris", "lat": 8.080002093323357, "lon": -122.46916328833476, "alt_km": 906.6838287764604, "timestamp": "2025-12-03T17:47:50.989328+00:00", "meta": {"OBJECT_NAME": "FENGYUN 1C DEB", "OBJECT_ID": "1999-025EN", "EPOCH": "2025-12-03T04:20:30.954912", "MEAN_MOTION": 14.31942472, "ECCENTRICITY": 0.01676683, "INCLINATION": 98.9366, "RA_OF_ASC_NODE": 238.2334, "ARG_OF_PERICENTER": 195.0502, "MEAN_ANOMALY": 164.5658, "EPHEMERIS_TYPE": 0, "CLASSIFICATION_TYPE": "U", "NORAD_CAT_ID": 29844, "ELEMENT_SET_NO": 999, "REV_AT_EPOCH": 98204, "BSTAR": 0.00055201458, "MEAN_MOTION_DOT": 1.677e-05, "MEAN_MOTION_DDOT": 0}, "tle": {"line1": "1 29844U 99025EN  25337.18091383  .00001677  00000+0  55201-3 0  9991", "line2": "2 29844  98.9366 238.2334 0167668 195.0502 164.5658 14.31942472982046"}}, "geometry": {"type": "Point", "coordinates": [-122.46916328833476, 8.080002093323357]}}, {"type": "Feature", "properties": {"norad_id": 29845, "name": "FENGYUN 1C DEB", "group": "fengyun-1c-debris", "lat": 74.37739401093702, "lon": -54.098833818922735, "alt_km": 786.8955432854991, "timestamp": "2025-12-03T17:47:50.989338+00:00", "meta": {"OBJECT_NAME": "FENGYUN 1C DEB", "OBJECT_ID": "1999-025EP", "EPOCH": "2025-12-03T11:25:02.447328", "MEAN_MOTION": 14.26442564, "ECCENTRICITY": 0.0077478, "INCLINATION": 98.5217, "RA_OF_ASC_NODE": 338.0669, "ARG_OF_PERICENTER": 158.1336, "MEAN_ANOMALY": 355.2661, "EPHEMERIS_TYPE": 0, "CLASSIFICATION_TYPE": "U", "NORAD_CAT_ID": 29845, "ELEMENT_SET_NO": 999, "REV_AT_EPOCH": 97977, "BSTAR": 0.00079688, "MEAN_MOTION_DOT": 1.938e-05, "MEAN_MOTION_DDOT": 0}, "tle": {"line1": "1 29845U 99025EP  25337.47572277  .00001938  00000+0  79688-3 0  9995", "line2": "2 29845  98.5217 338.0669 0077478 158.1336 355.2661 14.26442564979772"}}, "geometry": {"type": "Point", "coordinates": [-54.098833818922735, 74.37739401093702]}}, {"type": "Feature", "properties": {"norad_id": 29846, "name": "FENGYUN 1C DEB", "group": "fengyun-1c-debris", "lat": -12.806739847129723, "lon": 21.75448362762445, "alt_km": 774.6609213125494, "timestamp": "2025-12-03T17:47:50.989348+00:00", "meta": {"OBJECT_NAME": "FENGYUN 1C DEB", "OBJECT_ID": "1999-025EQ", "EPOCH": "2025-12-03T02:44:29.552352", "MEAN_MOTION": 14.19082234, "ECCENTRICITY": 0.00842507, "INCLINATION": 98.6565, "RA_OF_ASC_NODE": 19.1572, "ARG_OF_PERICENTER": 332.3059, "MEAN_ANOMALY": 51.5408, "EPHEMERIS_TYPE": 0, "CLASSIFICATION_TYPE": "U", "NORAD_CAT_ID": 29846, "ELEMENT_SET_NO": 999, "REV_AT_EPOCH": 97723, "BSTAR": 0.00018187598, "MEAN_MOTION_DOT": 3.5e-06, "MEAN_MOTION_DDOT": 0}, "tle": {"line1": "1 29846U 99025EQ  25337.11423093  .00000350  00000+0  18188-3 0  9993", "line2": "2 29846  98.6565  19.1572 0084250 332.3059  51.5408 14.19082234977234"}}, "geometry": {"type": "Point", "coordinates": [21.75448362762445, -12.806739847129723]}}, {"type": "Feature", "properties": {"norad_id": 29847, "name": "FENGYUN 1C DEB", "group": "fengyun-1c-debris", "lat": 32.297573966675095, "lon": -31.836505731362298, "alt_km": 827.8992211470986, "timestamp": "2025-12-03T17:47:50.989358+00:00", "meta": {"OBJECT_NAME": "FENGYUN 1C DEB", "OBJECT_ID": "1999-025ER", "EPOCH": "2025-12-03T11:30:35.127936", "MEAN_MOTION": 14.02987699, "ECCENTRICITY": 0.0085773, "INCLINATION": 98.9025, "RA_OF_ASC_NODE": 333.5933, "ARG_OF_PERICENTER": 64.4696, "MEAN_ANOMALY": 86.3529, "EPHEMERIS_TYPE": 0, "CLASSIFICATION_TYPE": "U", "NORAD_CAT_ID": 29847, "ELEMENT_SET_NO": 999, "REV_AT_EPOCH": 96605, "BSTAR": 0.00018537, "MEAN_MOTION_DOT": 2.54e-06, "MEAN_MOTION_DDOT": 0}, "tle": {"line1": "1 29847U 99025ER  25337.47957324  .00000254  00000+0  18537-3 0  9993", "line2": "2 29847  98.9025 333.5933 0085773  64.4696  86.3529 14.02987699966053"}}, "geometry": {"type": "Point", "coordinates": [-31.836505731362298, 32.297573966675095]}}, {"type": "Feature", "properties": {"norad_id": 29848, "name": "FENGYUN 1C DEB", "group": "fengyun-1c-debris", "lat": -7.686891186475676, "lon": -153.94430453821948, "alt_km": 754.4972997053001, "timestamp": "2025-12-03T17:47:50.989368+00:00", "meta": {"OBJECT_NAME": "FENGYUN 1C DEB", "OBJECT_ID": "1999-025ES", "EPOCH": "2025-12-03T04:52:06.691008", "MEAN_MOTION": 14.20467126, "ECCENTRICITY": 0.0117813, "INCLINATION": 98.2494, "RA_OF_ASC_NODE": 204.4309, "ARG_OF_PERICENTER": 323.102, "MEAN_ANOMALY": 155.3547, "EPHEMERIS_TYPE": 0, "CLASSIFICATION_TYPE": "U", "NORAD_CAT_ID": 29848, "ELEMENT_SET_NO": 999, "REV_AT_EPOCH": 96982, "BSTAR": 0.0020559, "MEAN_MOTION_DOT": 4.692e-05, "MEAN_MOTION_DDOT": 0}, "tle": {"line1": "1 29848U 99025ES  25337.20285522  .00004692  00000+0  20559-2 0  9995", "line2": "2 29848  98.2494 204.4309 0117813 323.1020 155.3547 14.20467126969820"}}, "geometry": {"type": "Point", "coordinates": [-153.94430453821948, -7.686891186475676]}}, {"type": "Feature", "properties": {"norad_id": 29849, "name": "FENGYUN 1C DEB", "group": "fengyun-1c-debris", "lat": -16.993694977458812, "lon": 64.95940610608326, "alt_km": 878.3078945586622, "timestamp": "2025-12-03T17:47:50.989378+00:00", "meta": {"OBJECT_NAME": "FENGYUN 1C DEB", "OBJECT_ID": "1999-025ET", "EPOCH": "2025-12-03T11:19:56.180064", "MEAN_MOTION": 14.04843959, "ECCENTRICITY": 0.0081047, "INCLINATION": 99.012, "RA_OF_ASC_NODE": 61.912, "ARG_OF_PERICENTER": 70.6361, "MEAN_ANOMALY": 351.5475, "EPHEMERIS_TYPE": 0, "CLASSIFICATION_TYPE": "U", "NORAD_CAT_ID": 29849, "ELEMENT_SET_NO": 999, "REV_AT_EPOCH": 96240, "BSTAR": 0.0015657, "MEAN_MOTION_DOT": 2.545e-05, "MEAN_MOTION_DDOT": 0}, "tle": {"line1": "1 29849U 99025ET  25337.47217801  .00002545  00000+0  15657-2 0  9998", "line2": "2 29849  99.0120  61.9120 0081047  70.6361 351.5475 14.04843959962405"}}, "geometry": {"type": "Point", "coordinates": [64.95940610608326, -16.993694977458812]}}, {"type": "Feature", "properties": {"norad_id": 29850, "name": "FENGYUN 1C DEB", "group": "fengyun-1c-debris", "lat": 81.66498325047205, "lon": -171.68398639709122, "alt_km": 937.8640095589881, "timestamp": "2025-12-03T17:47:50.989388+00:00", "meta": {"OBJECT_NAME": "FENGYUN 1C DEB", "OBJECT_ID": "1999-025EU", "EPOCH": "2025-12-03T02:00:30.587040", "MEAN_MOTION": 13.99795555, "ECCENTRICITY": 0.01032411, "INCLINATION": 98.1215, "RA_OF_ASC_NODE": 264.801, "ARG_OF_PERICENTER": 316.9734, "MEAN_ANOMALY": 56.9554, "EPHEMERIS_TYPE": 0, "CLASSIFICATION_TYPE": "U", "NORAD_CAT_ID": 29850, "ELEMENT_SET_NO": 999, "REV_AT_EPOCH": 95885, "BSTAR": 0.0017724828, "MEAN_MOTION_DOT": 2.683e-05, "MEAN_MOTION_DDOT": 0}, "tle": {"line1": "1 29850U 99025EU  25337.08368735  .00002683  00000+0  17725-2 0  9991", "line2": "2 29850  98.1215 264.8010 0103241 316.9734  56.9554 13.99795555958854"}}, "geometry": {"type": "Point", "coordinates": [-171.68398639709122, 81.66498325047205]}}, {"type": "Feature", "properties": {"norad_id": 29851, "name": "FENGYUN 1C DEB", "group": "fengyun-1c-debris", "lat": -17.38496716658794, "lon": -164.53930619104997, "alt_km": 893.6745868447751, "timestamp": "2025-12-03T17:47:50.989399+00:00", "meta": {"OBJECT_NAME": "FENGYUN 1C DEB", "OBJECT_ID": "1999-025EV", "EPOCH": "2025-12-03T01:31:59.359008", "MEAN_MOTION": 13.83586255, "ECCENTRICITY": 0.01418801, "INCLINATION": 99.5854, "RA_OF_ASC_NODE": 17.8029, "ARG_OF_PERICENTER": 253.1537, "MEAN_ANOMALY": 171.9959, "EPHEMERIS_TYPE": 0, "CLASSIFICATION_TYPE": "U", "NORAD_CAT_ID": 29851, "ELEMENT_SET_NO": 999, "REV_AT_EPOCH": 95233, "BSTAR": 0.00042857114, "MEAN_MOTION_DOT": 4.64e-06, "MEAN_MOTION_DDOT": 0}, "tle": {"line1": "1 29851U 99025EV  25337.06388147  .00000464  00000+0  42857-3 0  9999", "line2": "2 29851  99.5854  17.8029 0141880 253.1537 171.9959 13.83586255952331"}}, "geometry": {"type": "Point", "coordinates": [-164.53930619104997, -17.38496716658794]}}, {"type": "Feature", "properties": {"norad_id": 29852, "name": "FENGYUN 1C DEB", "group": "fengyun-1c-debris", "lat": -6.980766213951652, "lon": -11.639362611378314, "alt_km": 971.4067892059866, "timestamp": "2025-12-03T17:47:50.989409+00:00", "meta": {"OBJECT_NAME": "FENGYUN 1C DEB", "OBJECT_ID": "1999-025EW", "EPOCH": "2025-12-03T11:44:41.934336", "MEAN_MOTION": 14.06985634, "ECCENTRICITY": 0.0135214, "INCLINATION": 99.3716, "RA_OF_ASC_NODE": 346.9407, "ARG_OF_PERICENTER": 175.5196, "MEAN_ANOMALY": 340.7978, "EPHEMERIS_TYPE": 0, "CLASSIFICATION_TYPE": "U", "NORAD_CAT_ID": 29852, "ELEMENT_SET_NO": 999, "REV_AT_EPOCH": 95854, "BSTAR": 0.0024955, "MEAN_MOTION_DOT": 4.481e-05, "MEAN_MOTION_DDOT": 0}, "tle": {"line1": "1 29852U 99025EW  25337.48937424  .00004481  00000+0  24955-2 0  9995", "line2": "2 29852  99.3716 346.9407 0135214 175.5196 340.7978 14.06985634958541"}}, "geometry": {"type": "Point", "coordinates": [-11.639362611378314, -6.980766213951652]}}]}